[{"OBJECT_NAME":"STARLINK-36762","OBJECT_ID":"2026-034U","EPOCH":"2026-03-05T04:00:01.999584","MEAN_MOTION":15.80860441,"ECCENTRICITY":0.000113,"INCLINATION":53.159,"RA_OF_ASC_NODE":233.8636,"ARG_OF_PERICENTER":120.0425,"MEAN_ANOMALY":242.1269,"EPHEMERIS_TYPE":0,"CLASSIFICATION_TYPE":"U","NORAD_CAT_ID":67868,"ELEMENT_SET_NO":999,"REV_AT_EPOCH":313,"BSTAR":0.00019662,"MEAN_MOTION_DOT":0.00038256,"MEAN_MOTION_DDOT":0},{"OBJECT_NAME":"STARLINK-36779","OBJECT_ID":"2026-034V","EPOCH":"2026-03-05T04:00:01.999584","MEAN_MOTION":15.80846944,"ECCENTRICITY":0.0001203,"INCLINATION":53.1591,"RA_OF_ASC_NODE":233.8543,"ARG_OF_PERICENTER":82.4949,"MEAN_ANOMALY":283.9542,"EPHEMERIS_TYPE":0,"CLASSIFICATION_TYPE":"U","NORAD_CAT_ID":67869,"ELEMENT_SET_NO":999,"REV_AT_EPOCH":313,"BSTAR":0.00024718,"MEAN_MOTION_DOT":0.000483,"MEAN_MOTION_DDOT":0},{"OBJECT_NAME":"STARLINK-36770","OBJECT_ID":"2026-034W","EPOCH":"2026-03-05T04:00:01.999584","MEAN_MOTION":15.80843958,"ECCENTRICITY":1.26e-5,"INCLINATION":53.1593,"RA_OF_ASC_NODE":233.8365,"ARG_OF_PERICENTER":152.2373,"MEAN_ANOMALY":222.7587,"EPHEMERIS_TYPE":0,"CLASSIFICATION_TYPE":"U","NORAD_CAT_ID":67870,"ELEMENT_SET_NO":999,"REV_AT_EPOCH":313,"BSTAR":0.00026059,"MEAN_MOTION_DOT":0.00050969,"MEAN_MOTION_DDOT":0},{"OBJECT_NAME":"STARLINK-36769","OBJECT_ID":"2026-034X","EPOCH":"2026-03-05T04:00:01.999584","MEAN_MOTION":15.80849858,"ECCENTRICITY":9.38e-5,"INCLINATION":53.1592,"RA_OF_ASC_NODE":233.8455,"ARG_OF_PERICENTER":74.8,"MEAN_ANOMALY":295.9177,"EPHEMERIS_TYPE":0,"CLASSIFICATION_TYPE":"U","NORAD_CAT_ID":67871,"ELEMENT_SET_NO":999,"REV_AT_EPOCH":313,"BSTAR":0.00031721,"MEAN_MOTION_DOT":0.00062292,"MEAN_MOTION_DDOT":0},{"OBJECT_NAME":"STARLINK-36786","OBJECT_ID":"2026-034Y","EPOCH":"2026-03-05T04:00:01.999584","MEAN_MOTION":15.80861895,"ECCENTRICITY":0.0001074,"INCLINATION":53.1592,"RA_OF_ASC_NODE":233.8278,"ARG_OF_PERICENTER":75.0123,"MEAN_ANOMALY":304.2506,"EPHEMERIS_TYPE":0,"CLASSIFICATION_TYPE":"U","NORAD_CAT_ID":67872,"ELEMENT_SET_NO":999,"REV_AT_EPOCH":313,"BSTAR":8.9438e-5,"MEAN_MOTION_DOT":0.00016979,"MEAN_MOTION_DDOT":0},{"OBJECT_NAME":"STARLINK-36783","OBJECT_ID":"2026-034Z","EPOCH":"2026-03-05T04:00:01.999584","MEAN_MOTION":15.80861079,"ECCENTRICITY":0.0001044,"INCLINATION":53.1594,"RA_OF_ASC_NODE":233.8182,"ARG_OF_PERICENTER":136.4098,"MEAN_ANOMALY":247.1181,"EPHEMERIS_TYPE":0,"CLASSIFICATION_TYPE":"U","NORAD_CAT_ID":67873,"ELEMENT_SET_NO":999,"REV_AT_EPOCH":313,"BSTAR":0.00018773,"MEAN_MOTION_DOT":0.00036488,"MEAN_MOTION_DDOT":0},{"OBJECT_NAME":"STARLINK-36730","OBJECT_ID":"2026-034AA","EPOCH":"2026-03-05T04:00:01.999584","MEAN_MOTION":15.80848378,"ECCENTRICITY":8.71e-5,"INCLINATION":53.1592,"RA_OF_ASC_NODE":233.8102,"ARG_OF_PERICENTER":79.8587,"MEAN_ANOMALY":307.9493,"EPHEMERIS_TYPE":0,"CLASSIFICATION_TYPE":"U","NORAD_CAT_ID":67874,"ELEMENT_SET_NO":999,"REV_AT_EPOCH":313,"BSTAR":0.00026175,"MEAN_MOTION_DOT":0.0005121,"MEAN_MOTION_DDOT":0},{"OBJECT_NAME":"STARLINK-36727","OBJECT_ID":"2026-034AB","EPOCH":"2026-03-05T04:00:01.999584","MEAN_MOTION":15.80867297,"ECCENTRICITY":5.29e-5,"INCLINATION":53.1593,"RA_OF_ASC_NODE":233.8009,"ARG_OF_PERICENTER":73.313,"MEAN_ANOMALY":318.7604,"EPHEMERIS_TYPE":0,"CLASSIFICATION_TYPE":"U","NORAD_CAT_ID":67875,"ELEMENT_SET_NO":999,"REV_AT_EPOCH":313,"BSTAR":6.6227e-5,"MEAN_MOTION_DOT":0.00012388,"MEAN_MOTION_DDOT":0},{"OBJECT_NAME":"STARLINK-36743","OBJECT_ID":"2026-034AC","EPOCH":"2026-03-05T04:00:01.999584","MEAN_MOTION":15.80877964,"ECCENTRICITY":0.0001092,"INCLINATION":53.1596,"RA_OF_ASC_NODE":233.7916,"ARG_OF_PERICENTER":155.422,"MEAN_ANOMALY":240.9187,"EPHEMERIS_TYPE":0,"CLASSIFICATION_TYPE":"U","NORAD_CAT_ID":67876,"ELEMENT_SET_NO":999,"REV_AT_EPOCH":313,"BSTAR":3.163e-5,"MEAN_MOTION_DOT":5.549e-5,"MEAN_MOTION_DDOT":0},{"OBJECT_NAME":"STARLINK-36784","OBJECT_ID":"2026-034AD","EPOCH":"2026-03-05T04:00:01.999584","MEAN_MOTION":15.80851926,"ECCENTRICITY":2.54e-5,"INCLINATION":53.1594,"RA_OF_ASC_NODE":233.7829,"ARG_OF_PERICENTER":49.6681,"MEAN_ANOMALY":350.9537,"EPHEMERIS_TYPE":0,"CLASSIFICATION_TYPE":"U","NORAD_CAT_ID":67877,"ELEMENT_SET_NO":999,"REV_AT_EPOCH":313,"BSTAR":0.00028641,"MEAN_MOTION_DOT":0.00056143,"MEAN_MOTION_DDOT":0},{"OBJECT_NAME":"STARLINK-36689","OBJECT_ID":"2026-034AE","EPOCH":"2026-03-05T04:00:01.999584","MEAN_MOTION":15.80827531,"ECCENTRICITY":9.76e-5,"INCLINATION":53.1593,"RA_OF_ASC_NODE":233.7746,"ARG_OF_PERICENTER":98.7492,"MEAN_ANOMALY":306.1455,"EPHEMERIS_TYPE":0,"CLASSIFICATION_TYPE":"U","NORAD_CAT_ID":67878,"ELEMENT_SET_NO":999,"REV_AT_EPOCH":313,"BSTAR":0.0005011,"MEAN_MOTION_DOT":0.00099134,"MEAN_MOTION_DDOT":0},{"OBJECT_NAME":"STARLINK-36818","OBJECT_ID":"2026-035A","EPOCH":"2026-03-05T04:00:01.999584","MEAN_MOTION":15.9728707,"ECCENTRICITY":0.0001331,"INCLINATION":97.2769,"RA_OF_ASC_NODE":356.1511,"ARG_OF_PERICENTER":116.4427,"MEAN_ANOMALY":72.0344,"EPHEMERIS_TYPE":0,"CLASSIFICATION_TYPE":"U","NORAD_CAT_ID":67879,"ELEMENT_SET_NO":999,"REV_AT_EPOCH":302,"BSTAR":-0.0020734,"MEAN_MOTION_DOT":-0.00901434,"MEAN_MOTION_DDOT":0.00026235},{"OBJECT_NAME":"STARLINK-36821","OBJECT_ID":"2026-035B","EPOCH":"2026-03-05T04:00:01.999584","MEAN_MOTION":15.97413733,"ECCENTRICITY":0.0001169,"INCLINATION":97.2765,"RA_OF_ASC_NODE":356.1541,"ARG_OF_PERICENTER":118.9138,"MEAN_ANOMALY":76.3545,"EPHEMERIS_TYPE":0,"CLASSIFICATION_TYPE":"U","NORAD_CAT_ID":67880,"ELEMENT_SET_NO":999,"REV_AT_EPOCH":302,"BSTAR":-0.002048,"MEAN_MOTION_DOT":-0.00896599,"MEAN_MOTION_DDOT":0.0002601},{"OBJECT_NAME":"STARLINK-36808","OBJECT_ID":"2026-035C","EPOCH":"2026-03-05T04:00:01.999584","MEAN_MOTION":15.97383343,"ECCENTRICITY":0.0001335,"INCLINATION":97.2766,"RA_OF_ASC_NODE":356.1521,"ARG_OF_PERICENTER":111.0614,"MEAN_ANOMALY":79.9821,"EPHEMERIS_TYPE":0,"CLASSIFICATION_TYPE":"U","NORAD_CAT_ID":67881,"ELEMENT_SET_NO":999,"REV_AT_EPOCH":302,"BSTAR":-0.0021245,"MEAN_MOTION_DOT":-0.00928343,"MEAN_MOTION_DDOT":0.00027738},{"OBJECT_NAME":"STARLINK-36817","OBJECT_ID":"2026-035D","EPOCH":"2026-03-05T04:00:01.999584","MEAN_MOTION":15.97624785,"ECCENTRICITY":0.000114,"INCLINATION":97.2756,"RA_OF_ASC_NODE":356.1571,"ARG_OF_PERICENTER":110.6718,"MEAN_ANOMALY":92.7004,"EPHEMERIS_TYPE":0,"CLASSIFICATION_TYPE":"U","NORAD_CAT_ID":67882,"ELEMENT_SET_NO":999,"REV_AT_EPOCH":302,"BSTAR":-0.0021309,"MEAN_MOTION_DOT":-0.00943409,"MEAN_MOTION_DDOT":0.00028655},{"OBJECT_NAME":"STARLINK-36856","OBJECT_ID":"2026-035E","EPOCH":"2026-03-05T04:00:01.999584","MEAN_MOTION":15.97545561,"ECCENTRICITY":0.0001143,"INCLINATION":97.2762,"RA_OF_ASC_NODE":356.1557,"ARG_OF_PERICENTER":100.3586,"MEAN_ANOMALY":99.2032,"EPHEMERIS_TYPE":0,"CLASSIFICATION_TYPE":"U","NORAD_CAT_ID":67883,"ELEMENT_SET_NO":999,"REV_AT_EPOCH":302,"BSTAR":-0.0021347,"MEAN_MOTION_DOT":-0.00940997,"MEAN_MOTION_DDOT":0.00028495}]
