STARLINK-36762          
1 67868U 26034U   26064.16668981  .00038256  00000+0  19662-3 0  9993
2 67868  53.1590 233.8636 0001130 120.0425 242.1269 15.80860441  3130
STARLINK-36779          
1 67869U 26034V   26064.16668981  .00048300  00000+0  24718-3 0  9993
2 67869  53.1591 233.8543 0001203  82.4949 283.9542 15.80846944  3131
STARLINK-36770          
1 67870U 26034W   26064.16668981  .00050969  00000+0  26059-3 0  9999
2 67870  53.1593 233.8365 0000126 152.2373 222.7587 15.80843958  3139
STARLINK-36769          
1 67871U 26034X   26064.16668981  .00062292  00000+0  31721-3 0  9994
2 67871  53.1592 233.8455 0000938  74.8000 295.9177 15.80849858  3138
STARLINK-36786          
1 67872U 26034Y   26064.16668981  .00016979  00000+0  89438-4 0  9995
2 67872  53.1592 233.8278 0001074  75.0123 304.2506 15.80861895  3138
STARLINK-36783          
1 67873U 26034Z   26064.16668981  .00036488  00000+0  18773-3 0  9996
2 67873  53.1594 233.8182 0001044 136.4098 247.1181 15.80861079  3133
STARLINK-36730          
1 67874U 26034AA  26064.16668981  .00051210  00000+0  26175-3 0  9992
2 67874  53.1592 233.8102 0000871  79.8587 307.9493 15.80848378  3132
STARLINK-36727          
1 67875U 26034AB  26064.16668981  .00012388  00000+0  66227-4 0  9999
2 67875  53.1593 233.8009 0000529  73.3130 318.7604 15.80867297  3138
STARLINK-36743          
1 67876U 26034AC  26064.16668981  .00005549  00000+0  31630-4 0  9991
2 67876  53.1596 233.7916 0001092 155.4220 240.9187 15.80877964  3130
STARLINK-36784          
1 67877U 26034AD  26064.16668981  .00056143  00000+0  28641-3 0  9995
2 67877  53.1594 233.7829 0000254  49.6681 350.9537 15.80851926  3137
STARLINK-36689          
1 67878U 26034AE  26064.16668981  .00099134  00000+0  50110-3 0  9999
2 67878  53.1593 233.7746 0000976  98.7492 306.1455 15.80827531  3138
STARLINK-36818          
1 67879U 26035A   26064.16668981 -.00901434  26235-3 -20734-2 0  9998
2 67879  97.2769 356.1511 0001331 116.4427  72.0344 15.97287070  3025
STARLINK-36821          
1 67880U 26035B   26064.16668981 -.00896599  26010-3 -20480-2 0  9994
2 67880  97.2765 356.1541 0001169 118.9138  76.3545 15.97413733  3028
STARLINK-36808          
1 67881U 26035C   26064.16668981 -.00928343  27738-3 -21245-2 0  9996
2 67881  97.2766 356.1521 0001335 111.0614  79.9821 15.97383343  3025
STARLINK-36817          
1 67882U 26035D   26064.16668981 -.00943409  28655-3 -21309-2 0  9997
2 67882  97.2756 356.1571 0001140 110.6718  92.7004 15.97624785  3028
STARLINK-36856          
1 67883U 26035E   26064.16668981 -.00940997  28495-3 -21347-2 0  9991
2 67883  97.2762 356.1557 0001143 100.3586  99.2032 15.97545561  3029
